{"type": "FeatureCollection", "features": [ {"type": "Feature", "properties": {"norad_id": 29808, "name": "FENGYUN 1C DEB", "group": "fengyun-1c-debris", "lat": -2.9114183389316377, "lon": 78.79761886294703, "alt_km": 513.7109680777221, "timestamp": "2025-12-07T20:38:14.335410+00:00", "meta": {"OBJECT_NAME": "FENGYUN 1C DEB", "OBJECT_ID": "1999-025DA", "EPOCH": "2025-12-07T06:16:02.641152", "MEAN_MOTION": 15.17954137, "ECCENTRICITY": 0.00173849, "INCLINATION": 99.017, "RA_OF_ASC_NODE": 258.5477, "ARG_OF_PERICENTER": 96.724, "MEAN_ANOMALY": 55.5007, "EPHEMERIS_TYPE": 0, "CLASSIFICATION_TYPE": "U", "NORAD_CAT_ID": 29808, "ELEMENT_SET_NO": 999, "REV_AT_EPOCH": 98142, "BSTAR": 0.017686979, "MEAN_MOTION_DOT": 0.00379158, "MEAN_MOTION_DDOT": 0}, "tle": {"line1": "1 29808U 99025DA  25341.26114168  .00379158  00000+0  17687-1 0  9998", "line2": "2 29808  99.0170 258.5477 0017384  96.7240  55.5007 15.17954137981423"}}, "geometry": {"type": "Point", "coordinates": [78.79761886294703, -2.9114183389316377]}}, {"type": "Feature", "properties": {"norad_id": 29809, "name": "FENGYUN 1C DEB", "group": "fengyun-1c-debris", "lat": -48.262780120785074, "lon": -44.75239961042037, "alt_km": 693.82859745103, "timestamp": "2025-12-07T20:38:14.335422+00:00", "meta": {"OBJECT_NAME": "FENGYUN 1C DEB", "OBJECT_ID": "1999-025DB", "EPOCH": "2025-12-07T04:18:45.170208", "MEAN_MOTION": 14.46564962, "ECCENTRICITY": 0.01164834, "INCLINATION": 98.8595, "RA_OF_ASC_NODE": 304.4677, "ARG_OF_PERICENTER": 6.633, "MEAN_ANOMALY": 5.2817, "EPHEMERIS_TYPE": 0, "CLASSIFICATION_TYPE": "U", "NORAD_CAT_ID": 29809, "ELEMENT_SET_NO": 999, "REV_AT_EPOCH": 99387, "BSTAR": 0.00067388702, "MEAN_MOTION_DOT": 2.59e-05, "MEAN_MOTION_DDOT": 0}, "tle": {"line1": "1 29809U 99025DB  25341.17968947  .00002590  00000+0  67389-3 0  9990", "line2": "2 29809  98.8595 304.4677 0116483   6.6330   5.2817 14.46564962993872"}}, "geometry": {"type": "Point", "coordinates": [-44.75239961042037, -48.262780120785074]}}, {"type": "Feature", "properties": {"norad_id": 29810, "name": "FENGYUN 1C DEB", "group": "fengyun-1c-debris", "lat": -75.80089490816091, "lon": 58.28166471242914, "alt_km": 819.8173547554334, "timestamp": "2025-12-07T20:38:14.335432+00:00", "meta": {"OBJECT_NAME": "FENGYUN 1C DEB", "OBJECT_ID": "1999-025DC", "EPOCH": "2025-12-07T02:37:11.417952", "MEAN_MOTION": 14.29118199, "ECCENTRICITY": 0.00671729, "INCLINATION": 99.2073, "RA_OF_ASC_NODE": 17.6192, "ARG_OF_PERICENTER": 35.1444, "MEAN_ANOMALY": 346.24, "EPHEMERIS_TYPE": 0, "CLASSIFICATION_TYPE": "U", "NORAD_CAT_ID": 29810, "ELEMENT_SET_NO": 999, "REV_AT_EPOCH": 98297, "BSTAR": 0.00045914686, "MEAN_MOTION_DOT": 1.144e-05, "MEAN_MOTION_DDOT": 0}, "tle": {"line1": "1 29810U 99025DC  25341.10915993  .00001144  00000+0  45915-3 0  9993", "line2": "2 29810  99.2073  17.6192 0067172  35.1444 346.2400 14.29118199982971"}}, "geometry": {"type": "Point", "coordinates": [58.28166471242914, -75.80089490816091]}}, {"type": "Feature", "properties": {"norad_id": 29812, "name": "FENGYUN 1C DEB", "group": "fengyun-1c-debris", "lat": -80.26370497900888, "lon": -130.03379704787343, "alt_km": 851.2422456160384, "timestamp": "2025-12-07T20:38:14.335442+00:00", "meta": {"OBJECT_NAME": "FENGYUN 1C DEB", "OBJECT_ID": "1999-025DE", "EPOCH": "2025-12-07T01:05:47.261760", "MEAN_MOTION": 14.01959129, "ECCENTRICITY": 0.01444592, "INCLINATION": 98.3498, "RA_OF_ASC_NODE": 170.3581, "ARG_OF_PERICENTER": 343.8427, "MEAN_ANOMALY": 145.6696, "EPHEMERIS_TYPE": 0, "CLASSIFICATION_TYPE": "U", "NORAD_CAT_ID": 29812, "ELEMENT_SET_NO": 999, "REV_AT_EPOCH": 96092, "BSTAR": 0.0016935691, "MEAN_MOTION_DOT": 2.789e-05, "MEAN_MOTION_DDOT": 0}, "tle": {"line1": "1 29812U 99025DE  25341.04568590  .00002789  00000+0  16936-2 0  9991", "line2": "2 29812  98.3498 170.3581 0144459 343.8427 145.6696 14.01959129960922"}}, "geometry": {"type": "Point", "coordinates": [-130.03379704787343, -80.26370497900888]}}, {"type": "Feature", "properties": {"norad_id": 29813, "name": "FENGYUN 1C DEB", "group": "fengyun-1c-debris", "lat": 44.39474502080096, "lon": -169.4789726898637, "alt_km": 859.2345284495523, "timestamp": "2025-12-07T20:38:14.335452+00:00", "meta": {"OBJECT_NAME": "FENGYUN 1C DEB", "OBJECT_ID": "1999-025DF", "EPOCH": "2025-12-05T08:26:47.543424", "MEAN_MOTION": 14.09447975, "ECCENTRICITY": 0.00115731, "INCLINATION": 98.728, "RA_OF_ASC_NODE": 359.4401, "ARG_OF_PERICENTER": 244.4199, "MEAN_ANOMALY": 132.2998, "EPHEMERIS_TYPE": 0, "CLASSIFICATION_TYPE": "U", "NORAD_CAT_ID": 29813, "ELEMENT_SET_NO": 999, "REV_AT_EPOCH": 97156, "BSTAR": 0.00017865491, "MEAN_MOTION_DOT": 2.69e-06, "MEAN_MOTION_DDOT": 0}, "tle": {"line1": "1 29813U 99025DF  25339.35193916  .00000269  00000+0  17865-3 0  9993", "line2": "2 29813  98.7280 359.4401 0011573 244.4199 132.2998 14.09447975971567"}}, "geometry": {"type": "Point", "coordinates": [-169.4789726898637, 44.39474502080096]}}, {"type": "Feature", "properties": {"norad_id": 29815, "name": "FENGYUN 1C DEB", "group": "fengyun-1c-debris", "lat": -61.895003372334706, "lon": 155.10635342624448, "alt_km": 691.5988455640854, "timestamp": "2025-12-07T20:38:14.335463+00:00", "meta": {"OBJECT_NAME": "FENGYUN 1C DEB", "OBJECT_ID": "1999-025DH", "EPOCH": "2025-12-06T23:51:22.688640", "MEAN_MOTION": 14.63659892, "ECCENTRICITY": 0.01838038, "INCLINATION": 98.0553, "RA_OF_ASC_NODE": 349.6369, "ARG_OF_PERICENTER": 153.2418, "MEAN_ANOMALY": 207.8414, "EPHEMERIS_TYPE": 0, "CLASSIFICATION_TYPE": "U", "NORAD_CAT_ID": 29815, "ELEMENT_SET_NO": 999, "REV_AT_EPOCH": 99771, "BSTAR": 0.00080902534, "MEAN_MOTION_DOT": 5.329e-05, "MEAN_MOTION_DDOT": 0}, "tle": {"line1": "1 29815U 99025DH  25340.99401260  .00005329  00000+0  80903-3 0  9996", "line2": "2 29815  98.0553 349.6369 0183803 153.2418 207.8414 14.63659892997716"}}, "geometry": {"type": "Point", "coordinates": [155.10635342624448, -61.895003372334706]}}, {"type": "Feature", "properties": {"norad_id": 29816, "name": "FENGYUN 1C DEB", "group": "fengyun-1c-debris", "lat": 26.492918451349603, "lon": -162.9550034692594, "alt_km": 906.6977437519081, "timestamp": "2025-12-07T20:38:14.335473+00:00", "meta": {"OBJECT_NAME": "FENGYUN 1C DEB", "OBJECT_ID": "1999-025DJ", "EPOCH": "2025-12-07T01:18:01.630656", "MEAN_MOTION": 14.4421506, "ECCENTRICITY": 0.02378036, "INCLINATION": 98.9928, "RA_OF_ASC_NODE": 200.7198, "ARG_OF_PERICENTER": 194.0955, "MEAN_ANOMALY": 326.9726, "EPHEMERIS_TYPE": 0, "CLASSIFICATION_TYPE": "U", "NORAD_CAT_ID": 29816, "ELEMENT_SET_NO": 999, "REV_AT_EPOCH": 98105, "BSTAR": 0.0016188679, "MEAN_MOTION_DOT": 7.806e-05, "MEAN_MOTION_DDOT": 0}, "tle": {"line1": "1 29816U 99025DJ  25341.05418554  .00007806  00000+0  16189-2 0  9995", "line2": "2 29816  98.9928 200.7198 0237803 194.0955 326.9726 14.44215060981051"}}, "geometry": {"type": "Point", "coordinates": [-162.9550034692594, 26.492918451349603]}}, {"type": "Feature", "properties": {"norad_id": 29817, "name": "FENGYUN 1C DEB", "group": "fengyun-1c-debris", "lat": 45.048162905425706, "lon": 159.93943764446686, "alt_km": 843.365036240164, "timestamp": "2025-12-07T20:38:14.335483+00:00", "meta": {"OBJECT_NAME": "FENGYUN 1C DEB", "OBJECT_ID": "1999-025DK", "EPOCH": "2025-12-07T06:28:59.981088", "MEAN_MOTION": 14.14241896, "ECCENTRICITY": 0.00125517, "INCLINATION": 98.5571, "RA_OF_ASC_NODE": 330.7002, "ARG_OF_PERICENTER": 30.6014, "MEAN_ANOMALY": 342.5997, "EPHEMERIS_TYPE": 0, "CLASSIFICATION_TYPE": "U", "NORAD_CAT_ID": 29817, "ELEMENT_SET_NO": 999, "REV_AT_EPOCH": 97318, "BSTAR": 0.00054698338, "MEAN_MOTION_DOT": 1.003e-05, "MEAN_MOTION_DDOT": 0}, "tle": {"line1": "1 29817U 99025DK  25341.27013867  .00001003  00000+0  54698-3 0  9999", "line2": "2 29817  98.5571 330.7002 0012551  30.6014 342.5997 14.14241896973184"}}, "geometry": {"type": "Point", "coordinates": [159.93943764446686, 45.048162905425706]}}, {"type": "Feature", "properties": {"norad_id": 29818, "name": "FENGYUN 1C DEB", "group": "fengyun-1c-debris", "lat": 39.530015481808434, "lon": -147.91362448722506, "alt_km": 791.3575734978458, "timestamp": "2025-12-07T20:38:14.335493+00:00", "meta": {"OBJECT_NAME": "FENGYUN 1C DEB", "OBJECT_ID": "1999-025DL", "EPOCH": "2025-12-07T02:26:16.036800", "MEAN_MOTION": 14.04496364, "ECCENTRICITY": 0.01154853, "INCLINATION": 98.7219, "RA_OF_ASC_NODE": 218.6355, "ARG_OF_PERICENTER": 41.5947, "MEAN_ANOMALY": 126.5118, "EPHEMERIS_TYPE": 0, "CLASSIFICATION_TYPE": "U", "NORAD_CAT_ID": 29818, "ELEMENT_SET_NO": 999, "REV_AT_EPOCH": 96730, "BSTAR": 0.000283909, "MEAN_MOTION_DOT": 4.39e-06, "MEAN_MOTION_DDOT": 0}, "tle": {"line1": "1 29818U 99025DL  25341.10157450  .00000439  00000+0  28391-3 0  9992", "line2": "2 29818  98.7219 218.6355 0115485  41.5947 126.5118 14.04496364967300"}}, "geometry": {"type": "Point", "coordinates": [-147.91362448722506, 39.530015481808434]}}, {"type": "Feature", "properties": {"norad_id": 29819, "name": "FENGYUN 1C DEB", "group": "fengyun-1c-debris", "lat": -14.859034011726598, "lon": 143.46733750614803, "alt_km": 945.7737803052541, "timestamp": "2025-12-07T20:38:14.335503+00:00", "meta": {"OBJECT_NAME": "FENGYUN 1C DEB", "OBJECT_ID": "1999-025DM", "EPOCH": "2025-12-07T04:36:03.153888", "MEAN_MOTION": 14.021836, "ECCENTRICITY": 0.01915344, "INCLINATION": 98.7308, "RA_OF_ASC_NODE": 325.1635, "ARG_OF_PERICENTER": 82.5402, "MEAN_ANOMALY": 339.3316, "EPHEMERIS_TYPE": 0, "CLASSIFICATION_TYPE": "U", "NORAD_CAT_ID": 29819, "ELEMENT_SET_NO": 999, "REV_AT_EPOCH": 96542, "BSTAR": 0.0006271189, "MEAN_MOTION_DOT": 1.087e-05, "MEAN_MOTION_DDOT": 0}, "tle": {"line1": "1 29819U 99025DM  25341.19170317  .00001087  00000+0  62712-3 0  9994", "line2": "2 29819  98.7308 325.1635 0191534  82.5402 339.3316 14.02183600965424"}}, "geometry": {"type": "Point", "coordinates": [143.46733750614803, -14.859034011726598]}}]}